STARLINK-36058          
1 66591U 25270D   25352.59560496  .00078804  00000+0  13344-2 0  9997
2 66591  42.9989 158.4771 0002467 282.0011  78.0573 15.50601952  5252
STARLINK-36066          
1 66592U 25270E   25352.56316294  .00034619  00000+0  83145-3 0  9993
2 66592  42.9983 159.1001 0001708 275.6443  84.4219 15.40728734  5148
STARLINK-36031          
1 66593U 25270F   25352.66667824  .00003526  00000+0  91650-4 0  9997
2 66593  42.9989 158.2959 0001453 271.9684  29.9910 15.40690649  5358
STARLINK-36032          
1 66594U 25270G   25352.66667824 -.02093508  00000+0 -48104-1 0  9994
2 66594  42.9999 158.0777 0001650 267.3508 125.1290 15.45470671  5096
STARLINK-35711          
1 66595U 25270H   25352.59422830  .00087710  00000+0  14844-2 0  9992
2 66595  42.9993 158.4658 0001458 261.8662  98.2033 15.50574943  5367
STARLINK-35811          
1 66596U 25270J   25352.56764277  .00052322  00000+0  12500-2 0  9992
2 66596  42.9987 159.1345 0001940 271.7074  88.3560 15.40727967  5354
STARLINK-35820          
1 66597U 25270K   25352.55868316  .00034768  00000+0  83492-3 0  9994
2 66597  42.9988 159.0654 0001885 294.5931  65.4729 15.40729987  5358
STARLINK-35981          
1 66598U 25270L   25352.66667824  .00003518  00000+0  91465-4 0  9997
2 66598  42.9991 158.2344 0001892 269.1820  57.6600 15.40690339  5194
STARLINK-35930          
1 66599U 25270M   25352.59286196  .00046316  00000+0  79043-3 0  9999
2 66599  42.9990 158.4552 0001187 260.9450  99.1275 15.50586883  5257
STARLINK-35980          
1 66600U 25270N   25352.66667824  .00015837  00000+0  38598-3 0  9995
2 66600  42.9991 158.1144 0001782 272.1273 104.4903 15.40669869  5257
STARLINK-35978          
1 66601U 25270P   25352.66667824  .00004849  00000+0  12332-3 0  9995
2 66601  42.9986 158.3546 0001663 259.3421  17.7430 15.40684359  5195
STARLINK-36050          
1 66602U 25270Q   25352.56540539  .00047290  00000+0  11316-2 0  9995
2 66602  42.9982 159.1158 0001667 272.1493  87.9173 15.40718042  5141
