CCSDS_OMM_VERS = 2.0
CREATION_DATE  = 
ORIGINATOR     = 

OBJECT_NAME    = STARLINK-36058
OBJECT_ID      = 2025-270D
CENTER_NAME    = EARTH
REF_FRAME      = TEME
TIME_SYSTEM    = UTC
MEAN_ELEMENT_THEORY = SGP/SGP4

EPOCH          = 2025-12-18T14:17:40.268544
MEAN_MOTION    = 15.50601952
ECCENTRICITY   = .00024679
INCLINATION    = 42.9989
RA_OF_ASC_NODE = 158.4771
ARG_OF_PERICENTER = 282.0011
MEAN_ANOMALY   = 78.0573

EPHEMERIS_TYPE = 0
CLASSIFICATION_TYPE = U
NORAD_CAT_ID   = 66591
ELEMENT_SET_NO = 999
REV_AT_EPOCH   = 525
BSTAR          = .13344316E-2
MEAN_MOTION_DOT = .78804E-3
MEAN_MOTION_DDOT = 0

CCSDS_OMM_VERS = 2.0
CREATION_DATE  = 
ORIGINATOR     = 

OBJECT_NAME    = STARLINK-36066
OBJECT_ID      = 2025-270E
CENTER_NAME    = EARTH
REF_FRAME      = TEME
TIME_SYSTEM    = UTC
MEAN_ELEMENT_THEORY = SGP/SGP4

EPOCH          = 2025-12-18T13:30:57.278016
MEAN_MOTION    = 15.40728734
ECCENTRICITY   = .0001708
INCLINATION    = 42.9983
RA_OF_ASC_NODE = 159.1001
ARG_OF_PERICENTER = 275.6443
MEAN_ANOMALY   = 84.4219

EPHEMERIS_TYPE = 0
CLASSIFICATION_TYPE = U
NORAD_CAT_ID   = 66592
ELEMENT_SET_NO = 999
REV_AT_EPOCH   = 514
BSTAR          = .83144747E-3
MEAN_MOTION_DOT = .34619E-3
MEAN_MOTION_DDOT = 0

CCSDS_OMM_VERS = 2.0
CREATION_DATE  = 
ORIGINATOR     = 

OBJECT_NAME    = STARLINK-36031
OBJECT_ID      = 2025-270F
CENTER_NAME    = EARTH
REF_FRAME      = TEME
TIME_SYSTEM    = UTC
MEAN_ELEMENT_THEORY = SGP/SGP4

EPOCH          = 2025-12-18T16:00:00.999936
MEAN_MOTION    = 15.40690649
ECCENTRICITY   = .00014533
INCLINATION    = 42.9989
RA_OF_ASC_NODE = 158.2959
ARG_OF_PERICENTER = 271.9684
MEAN_ANOMALY   = 29.9910

EPHEMERIS_TYPE = 0
CLASSIFICATION_TYPE = U
NORAD_CAT_ID   = 66593
ELEMENT_SET_NO = 999
REV_AT_EPOCH   = 535
BSTAR          = .91649509E-4
MEAN_MOTION_DOT = .3526E-4
MEAN_MOTION_DDOT = 0

CCSDS_OMM_VERS = 2.0
CREATION_DATE  = 
ORIGINATOR     = 

OBJECT_NAME    = STARLINK-36032
OBJECT_ID      = 2025-270G
CENTER_NAME    = EARTH
REF_FRAME      = TEME
TIME_SYSTEM    = UTC
MEAN_ELEMENT_THEORY = SGP/SGP4

EPOCH          = 2025-12-18T16:00:00.999936
MEAN_MOTION    = 15.45470671
ECCENTRICITY   = .00016507
INCLINATION    = 42.9999
RA_OF_ASC_NODE = 158.0777
ARG_OF_PERICENTER = 267.3508
MEAN_ANOMALY   = 125.1290

EPHEMERIS_TYPE = 0
CLASSIFICATION_TYPE = U
NORAD_CAT_ID   = 66594
ELEMENT_SET_NO = 999
REV_AT_EPOCH   = 509
BSTAR          = -.48103863E-1
MEAN_MOTION_DOT = -.2093508E-1
MEAN_MOTION_DDOT = 0

CCSDS_OMM_VERS = 2.0
CREATION_DATE  = 
ORIGINATOR     = 

OBJECT_NAME    = STARLINK-35711
OBJECT_ID      = 2025-270H
CENTER_NAME    = EARTH
REF_FRAME      = TEME
TIME_SYSTEM    = UTC
MEAN_ELEMENT_THEORY = SGP/SGP4

EPOCH          = 2025-12-18T14:15:41.325120
MEAN_MOTION    = 15.50574943
ECCENTRICITY   = .0001458
INCLINATION    = 42.9993
RA_OF_ASC_NODE = 158.4658
ARG_OF_PERICENTER = 261.8662
MEAN_ANOMALY   = 98.2033

EPHEMERIS_TYPE = 0
CLASSIFICATION_TYPE = U
NORAD_CAT_ID   = 66595
ELEMENT_SET_NO = 999
REV_AT_EPOCH   = 536
BSTAR          = .1484408E-2
MEAN_MOTION_DOT = .8771E-3
MEAN_MOTION_DDOT = 0

CCSDS_OMM_VERS = 2.0
CREATION_DATE  = 
ORIGINATOR     = 

OBJECT_NAME    = STARLINK-35811
OBJECT_ID      = 2025-270J
CENTER_NAME    = EARTH
REF_FRAME      = TEME
TIME_SYSTEM    = UTC
MEAN_ELEMENT_THEORY = SGP/SGP4

EPOCH          = 2025-12-18T13:37:24.335328
MEAN_MOTION    = 15.40727967
ECCENTRICITY   = .00019409
INCLINATION    = 42.9987
RA_OF_ASC_NODE = 159.1345
ARG_OF_PERICENTER = 271.7074
MEAN_ANOMALY   = 88.3560

EPHEMERIS_TYPE = 0
CLASSIFICATION_TYPE = U
NORAD_CAT_ID   = 66596
ELEMENT_SET_NO = 999
REV_AT_EPOCH   = 535
BSTAR          = .12500405E-2
MEAN_MOTION_DOT = .52322E-3
MEAN_MOTION_DDOT = 0

CCSDS_OMM_VERS = 2.0
CREATION_DATE  = 
ORIGINATOR     = 

OBJECT_NAME    = STARLINK-35820
OBJECT_ID      = 2025-270K
CENTER_NAME    = EARTH
REF_FRAME      = TEME
TIME_SYSTEM    = UTC
MEAN_ELEMENT_THEORY = SGP/SGP4

EPOCH          = 2025-12-18T13:24:30.225024
MEAN_MOTION    = 15.40729987
ECCENTRICITY   = .00018851
INCLINATION    = 42.9988
RA_OF_ASC_NODE = 159.0654
ARG_OF_PERICENTER = 294.5931
MEAN_ANOMALY   = 65.4729

EPHEMERIS_TYPE = 0
CLASSIFICATION_TYPE = U
NORAD_CAT_ID   = 66597
ELEMENT_SET_NO = 999
REV_AT_EPOCH   = 535
BSTAR          = .83492334E-3
MEAN_MOTION_DOT = .34768E-3
MEAN_MOTION_DDOT = 0

CCSDS_OMM_VERS = 2.0
CREATION_DATE  = 
ORIGINATOR     = 

OBJECT_NAME    = STARLINK-35981
OBJECT_ID      = 2025-270L
CENTER_NAME    = EARTH
REF_FRAME      = TEME
TIME_SYSTEM    = UTC
MEAN_ELEMENT_THEORY = SGP/SGP4

EPOCH          = 2025-12-18T16:00:00.999936
MEAN_MOTION    = 15.40690339
ECCENTRICITY   = .00018927
INCLINATION    = 42.9991
RA_OF_ASC_NODE = 158.2344
ARG_OF_PERICENTER = 269.1820
MEAN_ANOMALY   = 57.6600

EPHEMERIS_TYPE = 0
CLASSIFICATION_TYPE = U
NORAD_CAT_ID   = 66598
ELEMENT_SET_NO = 999
REV_AT_EPOCH   = 519
BSTAR          = .91465155E-4
MEAN_MOTION_DOT = .3518E-4
MEAN_MOTION_DDOT = 0

CCSDS_OMM_VERS = 2.0
CREATION_DATE  = 
ORIGINATOR     = 

OBJECT_NAME    = STARLINK-35930
OBJECT_ID      = 2025-270M
CENTER_NAME    = EARTH
REF_FRAME      = TEME
TIME_SYSTEM    = UTC
MEAN_ELEMENT_THEORY = SGP/SGP4

EPOCH          = 2025-12-18T14:13:43.273344
MEAN_MOTION    = 15.50586883
ECCENTRICITY   = .00011875
INCLINATION    = 42.9990
RA_OF_ASC_NODE = 158.4552
ARG_OF_PERICENTER = 260.9450
MEAN_ANOMALY   = 99.1275

EPHEMERIS_TYPE = 0
CLASSIFICATION_TYPE = U
NORAD_CAT_ID   = 66599
ELEMENT_SET_NO = 999
REV_AT_EPOCH   = 525
BSTAR          = .79042727E-3
MEAN_MOTION_DOT = .46316E-3
MEAN_MOTION_DDOT = 0

CCSDS_OMM_VERS = 2.0
CREATION_DATE  = 
ORIGINATOR     = 

OBJECT_NAME    = STARLINK-35980
OBJECT_ID      = 2025-270N
CENTER_NAME    = EARTH
REF_FRAME      = TEME
TIME_SYSTEM    = UTC
MEAN_ELEMENT_THEORY = SGP/SGP4

EPOCH          = 2025-12-18T16:00:00.999936
MEAN_MOTION    = 15.40669869
ECCENTRICITY   = .00017829
INCLINATION    = 42.9991
RA_OF_ASC_NODE = 158.1144
ARG_OF_PERICENTER = 272.1273
MEAN_ANOMALY   = 104.4903

EPHEMERIS_TYPE = 0
CLASSIFICATION_TYPE = U
NORAD_CAT_ID   = 66600
ELEMENT_SET_NO = 999
REV_AT_EPOCH   = 525
BSTAR          = .38597713E-3
MEAN_MOTION_DOT = .15837E-3
MEAN_MOTION_DDOT = 0

CCSDS_OMM_VERS = 2.0
CREATION_DATE  = 
ORIGINATOR     = 

OBJECT_NAME    = STARLINK-35978
OBJECT_ID      = 2025-270P
CENTER_NAME    = EARTH
REF_FRAME      = TEME
TIME_SYSTEM    = UTC
MEAN_ELEMENT_THEORY = SGP/SGP4

EPOCH          = 2025-12-18T16:00:00.999936
MEAN_MOTION    = 15.40684359
ECCENTRICITY   = .00016639
INCLINATION    = 42.9986
RA_OF_ASC_NODE = 158.3546
ARG_OF_PERICENTER = 259.3421
MEAN_ANOMALY   = 17.7430

EPHEMERIS_TYPE = 0
CLASSIFICATION_TYPE = U
NORAD_CAT_ID   = 66601
ELEMENT_SET_NO = 999
REV_AT_EPOCH   = 519
BSTAR          = .12332129E-3
MEAN_MOTION_DOT = .4849E-4
MEAN_MOTION_DDOT = 0

CCSDS_OMM_VERS = 2.0
CREATION_DATE  = 
ORIGINATOR     = 

OBJECT_NAME    = STARLINK-36050
OBJECT_ID      = 2025-270Q
CENTER_NAME    = EARTH
REF_FRAME      = TEME
TIME_SYSTEM    = UTC
MEAN_ELEMENT_THEORY = SGP/SGP4

EPOCH          = 2025-12-18T13:34:11.025696
MEAN_MOTION    = 15.40718042
ECCENTRICITY   = .00016676
INCLINATION    = 42.9982
RA_OF_ASC_NODE = 159.1158
ARG_OF_PERICENTER = 272.1493
MEAN_ANOMALY   = 87.9173

EPHEMERIS_TYPE = 0
CLASSIFICATION_TYPE = U
NORAD_CAT_ID   = 66602
ELEMENT_SET_NO = 999
REV_AT_EPOCH   = 514
BSTAR          = .11316262E-2
MEAN_MOTION_DOT = .4729E-3
MEAN_MOTION_DDOT = 0

